COMMENT,ORIGINATOR,NORAD_CAT_ID,OBJECT_NAME,OBJECT_TYPE,CLASSIFICATION_TYPE,INTLDES,EPOCH,EPOCH_MICROSECONDS,MEAN_MOTION,ECCENTRICITY,INCLINATION,RA_OF_ASC_NODE,ARG_OF_PERICENTER,MEAN_ANOMALY,EPHEMERIS_TYPE,ELEMENT_SET_NO,REV_AT_EPOCH,BSTAR,MEAN_MOTION_DOT,MEAN_MOTION_DDOT,FILE,TLE_LINE0,TLE_LINE1,TLE_LINE2,OBJECT_ID,OBJECT_NUMBER,SEMIMAJOR_AXIS,PERIOD,APOGEE,PERIGEE,DECAYED
GENERATED VIA SPACETRACK.ORG API,18 SPCS,25001,TITAN 3C TRANSTAGE DEB,DEBRIS,U,68081H,2024-03-02 18:11:42,507168,1.01697211,0.0068507,1.0334,346.6139,39.3456,126.704,0,999,10981,0,-0.00000264,0,4204905,0 TITAN 3C TRANSTAGE DEB,1 25001U 68081H   24062.75813087 -.00000264  00000-0  00000-0 0  9997,2 25001   1.0334 346.6139 0068507  39.3456 126.7040  1.01697211109816,1968-081H,25001,41769.808,1415.968,35677.825,35105.521,0
GENERATED VIA SPACETRACK.ORG API,18 SPCS,43453,TITAN 3C TRANSTAGE DEB,DEBRIS,U,69013L,2024-03-02 17:52:18,533280,1.07400399,0.0667607,1.7447,233.014,213.2513,141.7021,0,999,2305,0,-0.0000004,0,4206173,0 TITAN 3C TRANSTAGE DEB,1 43453U 69013L   24062.74465895 -.00000040  00000-0  00000-0 0  9995,2 43453   1.7447 233.0140 0667607 213.2513 141.7021  1.07400399 23055,1969-013L,43453,40277.692,1340.777,36588.524,31210.590,0
GENERATED VIA SPACETRACK.ORG API,18 SPCS,43453,TITAN 3C TRANSTAGE DEB,DEBRIS,U,69013L,2024-03-02 17:52:18,98688,1.0740045,0.0666846,1.7448,233.0215,213.2823,141.6729,0,999,2305,0,-0.0000004,0,4206277,0 TITAN 3C TRANSTAGE DEB,1 43453U 69013L   24062.74465392 -.00000040  00000-0  00000+0 0  9996,2 43453   1.7448 233.0215 0666846 213.2823 141.6729  1.07400450 23059,1969-013L,43453,40277.679,1340.777,36585.445,31213.643,0
GENERATED VIA SPACETRACK.ORG API,18 SPCS,43453,TITAN 3C TRANSTAGE DEB,DEBRIS,U,69013L,2024-03-02 17:52:18,98688,1.0740045,0.0666846,1.7448,233.0215,213.2823,141.6729,0,999,2305,0,-0.0000004,0,4206364,0 TITAN 3C TRANSTAGE DEB,1 43453U 69013L   24062.74465392 -.00000040  00000-0  00000-0 0  9997,2 43453   1.7448 233.0215 0666846 213.2823 141.6729  1.07400450 23059,1969-013L,43453,40277.679,1340.777,36585.445,31213.643,0
GENERATED VIA SPACETRACK.ORG API,18 SPCS,43453,TITAN 3C TRANSTAGE DEB,DEBRIS,U,69013L,2024-03-02 17:52:15,393504,1.07400903,0.0667193,1.7449,233.0167,213.2702,141.6839,0,999,2305,0,-0.0000004,0,4205844,0 TITAN 3C TRANSTAGE DEB,1 43453U 69013L   24062.74462261 -.00000040  00000-0  00000+0 0  9998,2 43453   1.7449 233.0167 0667193 213.2702 141.6839  1.07400903 23053,1969-013L,43453,40277.566,1340.771,36586.722,31212.140,0
GENERATED VIA SPACETRACK.ORG API,18 SPCS,41469,IRNSS 1G,PAYLOAD,U,16027A,2024-03-02 17:40:44,819904,1.00270758,0.0004997,3.2038,123.2229,289.9626,142.5135,0,999,2878,0,-0.00000326,0,4204599,0 IRNSS 1G,1 41469U 16027A   24062.73662986 -.00000326  00000-0  00000+0 0  9992,2 41469   3.2038 123.2229 0004997 289.9626 142.5135  1.00270758 28780,2016-027A,41469,42165.020,1436.112,35807.955,35765.815,0
GENERATED VIA SPACETRACK.ORG API,18 SPCS,20253,FLTSATCOM 8 (USA 46),PAYLOAD,U,89077A,2024-03-02 16:55:42,663360,1.0027535,0.0006774,12.6671,356.2095,349.427,195.1141,0,999,25221,0,-0.00000354,0,4204702,0 FLTSATCOM 8 (USA 46),1 20253U 89077A   24062.70535490 -.00000354  00000-0  00000+0 0  9992,2 20253  12.6671 356.2095 0006774 349.4270 195.1141  1.00275350252217,1989-077A,20253,42163.733,1436.046,35814.159,35757.036,0
GENERATED VIA SPACETRACK.ORG API,18 SPCS,20253,FLTSATCOM 8 (USA 46),PAYLOAD,U,89077A,2024-03-02 16:55:42,663360,1.0027535,0.0006774,12.6671,356.2095,349.427,195.1141,0,999,25223,0,-0.00000354,0,4204905,0 FLTSATCOM 8 (USA 46),1 20253U 89077A   24062.70535490 -.00000354  00000-0  00000-0 0  9993,2 20253  12.6671 356.2095 0006774 349.4270 195.1141  1.00275350252239,1989-077A,20253,42163.733,1436.046,35814.159,35757.036,0
GENERATED VIA SPACETRACK.ORG API,18 SPCS,28945,SPAINSAT,PAYLOAD,U,06007A,2024-03-02 15:16:17,89824,1.00273552,0.000321,0.053,255.4164,64.0382,40.508,0,999,6582,0,-0.00000206,0,4204786,0 SPAINSAT,1 28945U 06007A   24062.63630891 -.00000206  00000-0  00000+0 0  9999,2 28945   0.0530 255.4164 0003210  64.0382  40.5080  1.00273552 65827,2006-007A,28945,42164.237,1436.072,35799.636,35772.567,0
GENERATED VIA SPACETRACK.ORG API,18 SPCS,28945,SPAINSAT,PAYLOAD,U,06007A,2024-03-02 15:16:17,89824,1.00273552,0.000321,0.053,255.4164,64.0382,40.508,0,999,6582,0,-0.00000206,0,4204905,0 SPAINSAT,1 28945U 06007A   24062.63630891 -.00000206  00000-0  00000-0 0  9990,2 28945   0.0530 255.4164 0003210  64.0382  40.5080  1.00273552 65827,2006-007A,28945,42164.237,1436.072,35799.636,35772.567,0
GENERATED VIA SPACETRACK.ORG API,18 SPCS,28945,SPAINSAT,PAYLOAD,U,06007A,2024-03-02 15:16:17,249664,1.00273446,0.0003168,0.0531,254.0425,67.0045,38.9166,0,999,6583,0,-0.00000206,0,4206173,0 SPAINSAT,1 28945U 06007A   24062.63631076 -.00000206  00000-0  00000-0 0  9996,2 28945   0.0531 254.0425 0003168  67.0045  38.9166  1.00273446 65833,2006-007A,28945,42164.266,1436.073,35799.489,35772.774,0
GENERATED VIA SPACETRACK.ORG API,18 SPCS,43162,SBIRS GEO 3 (USA 282),PAYLOAD,U,18009A,2024-03-02 15:05:00,269376,1.00272196,0.0001862,2.4925,331.7852,20.0431,235.899,0,999,2245,0,0.0000014,0,4204354,0 SBIRS GEO 3 (USA 282),1 43162U 18009A   24062.62847534  .00000140  00000-0  00000-0 0  9992,2 43162   2.4925 331.7852 0001862  20.0431 235.8990  1.00272196 22453,2018-009A,43162,42164.617,1436.091,35794.333,35778.631,0
GENERATED VIA SPACETRACK.ORG API,18 SPCS,29162,EUTE 113 WEST A(SATMEX 6,PAYLOAD,U,06020A,2024-03-02 14:09:37,163808,1.00274615,0.0003131,0.2025,99.6066,243.5532,277.211,0,999,6508,0,-0.00000028,0,4204354,0 EUTE 113 WEST A(SATMEX 6,1 29162U 06020A   24062.59001347 -.00000028  00000-0  00000-0 0  9992,2 29162   0.2025  99.6066 0003131 243.5532 277.2110  1.00274615 65084,2006-020A,29162,42163.939,1436.056,35799.005,35772.602,0
GENERATED VIA SPACETRACK.ORG API,18 SPCS,41937,SBIRS GEO 4 (USA 273),PAYLOAD,U,17004A,2024-03-02 13:33:16,949664,1.00271661,0.0002375,1.4565,349.6146,354.8186,282.9021,0,999,2621,0,-0.00000132,0,4204354,0 SBIRS GEO 4 (USA 273),1 41937U 17004A   24062.56477951 -.00000132  00000-0  00000-0 0  9991,2 41937   1.4565 349.6146 0002375 354.8186 282.9021  1.00271661 26211,2017-004A,41937,42164.767,1436.099,35796.646,35776.618,0
GENERATED VIA SPACETRACK.ORG API,18 SPCS,44307,YAMAL 601,PAYLOAD,U,19031A,2024-03-02 12:36:42,776640,1.0027375,0.0002489,0.0096,173.2697,180.0366,45.6609,0,999,1752,0,0.0000013,0,4204354,0 YAMAL 601,1 44307U 19031A   24062.52549510  .00000130  00000-0  00000-0 0  9991,2 44307   0.0096 173.2697 0002489 180.0366  45.6609  1.00273750 17527,2019-031A,44307,42164.181,1436.069,35796.541,35775.551,0
GENERATED VIA SPACETRACK.ORG API,18 SPCS,41469,IRNSS 1G,PAYLOAD,U,16027A,2024-03-02 12:26:42,750240,1.00270876,0.0004991,3.2033,123.2325,289.9219,63.8216,0,999,2878,0,-0.00000326,0,4204354,0 IRNSS 1G,1 41469U 16027A   24062.51855035 -.00000326  00000-0  00000-0 0  9998,2 41469   3.2033 123.2325 0004991 289.9219  63.8216  1.00270876 28780,2016-027A,41469,42164.987,1436.110,35807.896,35765.807,0
GENERATED VIA SPACETRACK.ORG API,18 SPCS,8832,TITAN 3C TRANSTAGE DEB,DEBRIS,U,76023J,2024-03-02 12:00:42,826752,0.98259059,0.013743,20.099,53.2913,73.4861,315.4643,0,999,10938,0,-0.00000114,0,4204354,0 TITAN 3C TRANSTAGE DEB,1 08832U 76023J   24062.50049568 -.00000114  00000-0  00000-0 0  9997,2 08832  20.0990  53.2913 0137430  73.4861 315.4643  0.98259059109387,1976-023J,8832,42738.582,1465.514,36947.803,35773.091,0
GENERATED VIA SPACETRACK.ORG API,18 SPCS,38699,TITAN 3C TRANSTAGE DEB,DEBRIS,U,68081Z,2024-03-02 12:00:13,296960,1.00849063,0.0099759,1.3634,338.6965,344.5764,167.1115,0,999,5169,0,-0.00000078,0,4204149,0 TITAN 3C TRANSTAGE DEB,1 38699U 68081Z   24062.50015390 -.00000078  00000-0  00000+0 0  9990,2 38699   1.3634 338.6965 0099759 344.5764 167.1115  1.00849063 51690,1968-081Z,38699,42003.672,1427.876,36044.562,35206.513,0
GENERATED VIA SPACETRACK.ORG API,18 SPCS,38699,TITAN 3C TRANSTAGE DEB,DEBRIS,U,68081Z,2024-03-02 12:00:13,296960,1.00849063,0.0099759,1.3634,338.6965,344.5764,167.1115,0,999,4343,0,-0.00000078,0,4204354,0 TITAN 3C TRANSTAGE DEB,1 38699U 68081Z   24062.50015390 -.00000078  00000-0  00000-0 0  9991,2 38699   1.3634 338.6965 0099759 344.5764 167.1115  1.00849063 43433,1968-081Z,38699,42003.672,1427.876,36044.562,35206.513,0
GENERATED VIA SPACETRACK.ORG API,18 SPCS,23712,USA 115,PAYLOAD,U,95060A,2024-03-02 11:53:42,761184,1.00274676,0.0003416,13.7615,9.7827,317.4459,251.9467,0,999,2449,0,-0.00000008,0,4204354,0 USA 115,1 23712U 95060A   24062.49563381 -.00000008  00000-0  00000-0 0  9997,2 23712  13.7615   9.7827 0003416 317.4459 251.9467  1.00274676 24496,1995-060A,23712,42163.922,1436.056,35800.190,35771.383,0
GENERATED VIA SPACETRACK.ORG API,18 SPCS,25001,TITAN 3C TRANSTAGE DEB,DEBRIS,U,68081H,2024-03-02 11:52:42,712320,1.01697224,0.0068484,1.0335,346.5846,39.3552,30.364,0,999,10981,0,-0.0000026,0,4204354,0 TITAN 3C TRANSTAGE DEB,1 25001U 68081H   24062.49493880 -.00000260  00000-0  00000-0 0  9999,2 25001   1.0335 346.5846 0068484  39.3552  30.3640  1.01697224109812,1968-081H,25001,41769.804,1415.968,35677.726,35105.613,0
GENERATED VIA SPACETRACK.ORG API,18 SPCS,41937,SBIRS GEO 4 (USA 273),PAYLOAD,U,17004A,2024-03-02 11:40:46,602336,1.00271681,0.0002377,1.4565,349.6148,354.8295,254.6876,0,999,2621,0,-0.00000132,0,4203951,0 SBIRS GEO 4 (USA 273),1 41937U 17004A   24062.48665049 -.00000132  00000-0  00000+0 0  9998,2 41937   1.4565 349.6148 0002377 354.8295 254.6876  1.00271681 26212,2017-004A,41937,42164.761,1436.098,35796.649,35776.604,0
GENERATED VIA SPACETRACK.ORG API,18 SPCS,38697,TITAN 3C TRANSTAGE DEB *,DEBRIS,U,68081X,2024-03-02 11:28:46,638912,1.01473763,0.0380454,3.7557,34.3471,358.5722,1.5019,0,999,6637,0,-0.00000159,0,4206364,0 TITAN 3C TRANSTAGE DEB *,1 38697U 68081X   24062.47831758 -.00000159  00000-0  00000-0 0  9999,2 38697   3.7557  34.3471 0380454 358.5722   1.5019  1.01473763 66370,1968-081X,38697,41831.104,1419.086,37044.451,33861.488,0
